K00B02K 16.7   0.15 K14C9  62.13781  179.79887  319.33857    6.98473  0.5327463  0.14122910   3.6519088  4 MPC 39584    23   1   77 days 0.38 M-v 38h Williams   2000          2000 BK2           20000227
K00C13A 17.7   0.15 K14C9  18.90798  315.87330  189.45146    1.45671  0.5549620  0.13541097   3.7557801  2 MPO278178    80   3 2000-2013 0.45 M-v 38h MPCADO     0000          2000 CA13          20131124
K00D08G 13.1   0.15 K14C9 141.66803  222.30293  279.23939  129.47836  0.7929747  0.02789134  10.7685305  2 MPO  9789   124   2 2000-2001 0.50 M-v 38h Spahr      0000          2000 DG8           20010201
K00E38E 17.4   0.15 K14C9 265.77670  285.17990  199.63199    2.70174  0.5133764  0.18143136   3.0902562  1 MPO264918   107   3 2000-2011 0.46 M-v 38h MPCADO     0005          2000 EE38          20110429
K00GD2Q 17.7   0.15 K14C9 178.99058  146.76528   40.32096   30.13171  0.5338781  0.16728225   3.2621415  5 MPO 66119   181   1   54 days 0.53 M-v 38h MPCW       2005          2000 GQ132         20000605
K00H46E 14.8   0.15 K14C9  46.41866   82.03860  313.12426  158.44827  0.8999927  0.00863279  23.5343405  2 MPO 33875   118   2 2000-2000 0.54 M-v 38h MPCS       0000          2000 HE46          20001205
K00J60V 17.4   0.15 K14C9 214.88201  319.96688  242.44948    8.21417  0.5105130  0.17393973   3.1783632  1 MPO190271    35   3 1983-2011 0.51 M-v 38h MPCADO     0005          2000 JV60          20110113
K00K65P 10.5   0.15 K14C9   6.76654  321.99181  223.62618   45.62173  0.9630187  0.00119083  88.1528808  2 MPO 50477    20   1   58 days 0.61 M-v 38h MPCS       2011          2000 KP65          20000611
K00P05Z 17.4   0.15 K14C9   2.10492  242.40853  100.30670    3.65335  0.5195341  0.20752903   2.8254230  1 MPO303296   157   3 2000-2014 0.49 M-v 38h MPCADO     0005          2000 PZ5           20140725
K00Q34C 18.7   0.15 K14C9 216.13090  204.05155  167.57400   14.01098  0.5172230  0.18159007   3.0884553  2 MPO215058    90   2 2000-2011 0.57 M-v 38h MPCADO     0005          2000 QC34          20111127
K00S01B 15.2   0.15 K14C9 105.85577  145.17274  277.00265   22.18148  0.5409074  0.16149869   3.3395661  0 MPO254716   592   3 2000-2013 0.40 M-v 38h MPCADO     0005          2000 SB1           20130208
K00X08O 17.4   0.15 K14C9 242.91316  323.45404   57.79455   12.20466  0.6521326  0.11270765   4.2445708  4 MPO  9888    67   1   72 days 0.57 M-v 38h Spahr      2005          2000 XO8           20010131
K00Y29E 16.7   0.15 K14C9 245.45390   48.63879  109.18200   14.39802  0.5218542  0.19280550   2.9674934  0 MPO234347   168   5 1981-2012 0.43 M-v 38h MPCADO     0405          2000 YE29          20120614
K01K67X 16.6   0.15 K14C9 138.98104  115.22736  244.82604   20.69914  0.5764113  0.17887817   3.1195922  0 MPO281844   391   2 2001-2013 0.43 M-v 38h MPCADO     0005          2001 KX67          20130305
K01P13H 18.0   0.15 K14C9 223.30180  220.62086  148.77883   11.11392  0.5445306  0.19649176   2.9302622  0 MPO277116   175   3 2001-2011 0.48 M-v 38h MPCADO     0005          2001 PH13          20110917
K01Q06F 15.3   0.15 K14C9 238.39993  240.49448  143.89662   24.16792  0.6874594  0.05075498   7.2246524  1 MPO 57835    70   3 1982-2002 0.59 M-v 38h MPCS       0000          2001 QF6           20021117
K01QG9L 17.8   0.15 K14C9 150.71101  212.49196  111.13427   14.09921  0.5063019  0.17679170   3.1440888  2 MPO241841    60   2 2001-2012 0.46 M-v 38h MPCADO     0005          2001 QL169         20121013
K01R42A 17.9   0.15 K14C9 119.67841   73.68035  351.12240   21.37519  0.5198547  0.17895774   3.1186674  1 MPO245813    46   3 2001-2012 0.45 M-v 38h MPCADO     0005          2001 RA42          20121111
K01R43N 18.4   0.15 K14C9 215.59832  354.88541   10.64569   13.35105  0.5016126  0.19516940   2.9434832  5 MPO 74097    41   1   66 days 0.67 M-v 38h MPCS       2005          2001 RN43          20011025
K01SG9K 17.1   0.15 K14C9 166.98808  263.96945  177.76687   20.17219  0.5677572  0.18888258   3.0084407  1 MPO202384    78   3 2001-2008 0.43 M-v 38h MPCALB     0005          2001 SK169         20080427
K01U16O 17.7   0.15 K14C9  88.95361  164.31158  219.69417   25.39666  0.5361310  0.16903305   3.2395769  4 MPO 57847   111   1   62 days 0.58 M-v 38h MPCS       2005          2001 UO16          20011214
K01U18B 17.6   0.15 K14C9 184.76198  142.93901  238.32958   17.72381  0.5246345  0.18851002   3.0124031  2 MPO 29727   112   2 1980-2001 0.53 M-v 38h MPCS       0005          2001 UB18          20011218
K01U18C 18.9   0.15 K14C9 325.41604  133.21817  277.74917    6.16799  0.5146224  0.21800117   2.7341993  1 MPO190291   123   2 2001-2011 0.50 M-v 38h MPCADO     0005          2001 UC18          20110102
K01W01X 14.9   0.15 K14C9 277.50552   46.34524  304.13565   23.20854  0.5691221  0.13263997   3.8079079  4 MPO 50575    16   1   88 days 0.29 M-v 38h MPCS       2005          2001 WX1           20011120
K01X16L 20.6   0.15 K14C9  89.70422  326.15899  125.06345    1.68772  0.5309675  0.17202730   3.2018757  6 MPO 23946    15   1   32 days 0.40 M-v 38h MPCW       2005          2001 XL16          20011222
K01Y61K 13.7   0.15 K14C9 134.95926   15.62034   83.55665   12.38443  0.6931005  0.02868357  10.5693244  3 MPO 74120    31   1   61 days 0.55 M-v 38h MPCM       2000          2001 YK61          20020121
K02CH4X 16.6   0.15 K14C9 120.86355  225.00037  355.65361   21.64122  0.5137321  0.18368257   3.0649548  2 MPO267435   127   2 2002-2013 0.52 M-v 38h MPCS       0005          2002 CX174         20130519
K02E05T 19.1   0.15 K14C9 266.73147  216.79126    6.20020    6.25526  0.5045281  0.21535882   2.7565187  5 MPO 30701    23   1   36 days 0.55 M-v 38h MPCS       2005          2002 ET5           20020414
K02H00F 19.3   0.15 K14C9 309.52974  355.97251  205.45300   13.02679  0.5006758  0.22168403   2.7038325  5 MPO 62390    46   1   75 days 0.56 M-v 38h MPCS       2005          2002 HF            20020630
K02J68C 16.8   0.15 K14C9 120.35892  228.41987   73.36179   28.60754  0.5384218  0.18718082   3.0266474  3 MPO278183    41   2 2002-2013 0.40 M-v 38h MPCADO     0005          2002 JC68          20131127
K02K08J 20.2   0.15 K14C9   0.87376  216.09717   69.97640    4.89579  0.5937051  0.15947277   3.3677901  5 MPO 62391    29   1   48 days 0.69 M-v 38h MPCS       2005          2002 KJ8           20020705
K02L27J 18.1   0.15 K14C9  15.62941  355.64498  258.93041   17.77935  0.5042264  0.16150846   3.3394314  6 MPO261774    35   1   25 days 0.63 M-v 38h MPCS       2005          2002 LJ27          20020703
K02L62G 17.6   0.15 K14C9 110.13473   84.98514   93.59259   21.50065  0.5129268  0.17746976   3.1360752  1 MPO264924    81   2 2002-2013 0.37 M-v 38h MPCADO     0005          2002 LG62          20130521
K02PE0T 20.5   0.15 K14C9 321.64270  117.49604  218.63732    6.05128  0.5016080  0.23225267   2.6211723  4 MPO217993    70   1   89 days 0.43 M-v 38h MPCADO     2005          2002 PT140         20021006
K02Q06X 18.8   0.15 K14C9  67.16178  341.54189  326.37433   20.12159  0.5097437  0.17343755   3.1844954  7 MPO213084    41   1   27 days 0.60 M-v 38h MPCS       2005          2002 QX6           20020913
K02QF1U 18.4   0.15 K14C9 249.73572    1.14524  324.17565   11.35903  0.5484588  0.13619478   3.7413563  4 MPO234604    18   1   68 days 0.32 M-v 38h MPCW       2000          2002 QU151         20020912
K02R25S 19.5   0.15 K14C9  43.81996   27.83780  340.33361   10.19502  0.5114175  0.17154632   3.2078578  5 MPO 57887    40   1   47 days 0.62 M-v 38h MPCK       2005          2002 RS25          20021006
K02R28Q 18.5   0.15 K14C9 247.31690  209.95668  159.28512    9.29000  0.5612738  0.13603935   3.7442055  5 MPO 62400    42   1   42 days 0.52 M-v 38h MPCS       2005          2002 RQ28          20021002
K02RA9N 15.3   0.15 K14C9   0.22881  212.48145  170.50244   57.89619  0.9961672  0.00005249 706.4698909    MPO104218    38   1   80 days 0.52 M-v 38h MPCW       2011          2002 RN109         20021104
K02RC9R 22.4   0.15 K14C9  45.46938   20.77562  328.01570   11.57756  0.5582613  0.17066843   3.2188489  8 MPO261782    24   1   16 days 0.92 M-v 38h MPCS       2005          2002 RR129         20020913
K02RI1Y 20.1   0.15 K14C9 205.04787  183.40175  185.72428    2.49306  0.5016346  0.20923768   2.8100202  5 MPO 62406    32   1   65 days 0.31 M-v 38h MPCS       2005          2002 RY181         20021031
K02T58G 17.5   0.15 K14C9 121.84566  230.57837  187.86918   10.96669  0.5093382  0.19133080   2.9827220  1 MPO237318   119   3 2002-2012 0.47 M-v 38h MPCADO     0005          2002 TG58          20120821
K02T58X 17.2   0.15 K14C9 107.87712   93.37171  337.93083   21.11011  0.5361022  0.19147174   2.9812583  3 MPO125883    38   2 2002-2007 0.49 M-v 38h MPCADO     0005          2002 TX58          20071013
K02X36G 17.2   0.15 K14C9  34.70850  320.52314   88.00510   15.18620  0.5352728  0.17068889   3.2185917  3 MPO149858    36   2 2002-2008 0.43 M-v 38h MPCS       0005          2002 XG36          20081102
K02X39W 20.6   0.15 K14C9 293.42843   77.34792    5.60695    7.02154  0.5003537  0.23093232   2.6311538  5 MPO 74243    39   1   43 days 0.45 M-v 38h MPCADO     2005          2002 XW39          20030122
K02Y29K 18.1   0.15 K14C9  13.10376  127.25538  294.28536    9.94519  0.5564107  0.16593454   3.2797811  3 MPO193945    64   2 2002-2009 0.59 M-v 38h MPCW       0005          2002 YK29          20090204
K03B01M 18.3   0.15 K14C9 241.78694  155.93337  350.89110   11.22732  0.5042917  0.14007776   3.6718922  3 MPO181648    66   2 2003-2010 0.53 M-v 38h MPCW       0000          2003 BM1           20100504
K03B35U 16.4   0.15 K14C9 234.05781  214.09685  264.95770   14.88076  0.5378353  0.13621842   3.7409235  1 MPO193945   158   2 2002-2010 0.36 M-v 38h MPCW       0000          2003 BU35          20100224
K03C22C 12.7   0.15 K14C9 206.51807   37.14071  123.83153    6.42779  0.4277093  0.05022358   7.2755238  2 MPO160783    60   2 2003-2004 0.59 M-v 38h MPCW       0000          2003 CC22          20040425
